     2              NAVIGATION DATA                         RINEX VERSION / TYPE
CCRINEXN V1.6.0 UX  CDDIS               16-JAN-24 23:31     PGM / RUN BY / DATE 
IGS BROADCAST EPHEMERIS FILE                                COMMENT             
    0.2421D-07  0.7451D-08 -0.1192D-06  0.1192D-06          ION ALPHA           
    0.1454D+06 -0.1802D+06  0.0000D+00  0.1311D+06          ION BETA            
    0.000000000000D+00-0.266453525910D-14   319488     2297 DELTA-UTC: A0,A1,T,W
    18                                                      LEAP SECONDS        
                                                            END OF HEADER       
32 24  1 15  8  0  0.0-0.605177599937D-03-0.284217094304D-11 0.000000000000D+00
    0.170000000000D+02-0.105218750000D+03 0.449840166220D-08 0.159332826566D+01
   -0.550039112568D-05 0.740407360718D-02 0.955350697041D-05 0.515362818337D+04
    0.115200000000D+06-0.240281224251D-06 0.203827697190D+00 0.111758708954D-07
    0.961451620616D+00 0.198562500000D+03-0.219999890096D+01-0.814926802115D-08
   -0.270368404786D-09 0.100000000000D+01 0.229700000000D+04 0.000000000000D+00
    0.200000000000D+01 0.000000000000D+00 0.465661287308D-09 0.170000000000D+02
    0.114438000000D+06 0.400000000000D+01 0.000000000000D+00 0.000000000000D+00
23 24  1 15  9 14 40.0 0.135745853186D-03 0.750333128963D-11 0.000000000000D+00
    0.177000000000D+03-0.140625000000D+01 0.448304387963D-08-0.162738248379D+01
   -0.763684511185D-07 0.395978288725D-02 0.285729765892D-05 0.515370228195D+04
    0.119680000000D+06 0.670552253723D-07-0.862149115903D+00-0.130385160446D-07
    0.977236437934D+00 0.332906250000D+03-0.298196625374D+01-0.833999025121D-08
    0.168221292806D-09 0.100000000000D+01 0.229700000000D+04 0.000000000000D+00
    0.200000000000D+01 0.000000000000D+00-0.838190317154D-08 0.177000000000D+03
    0.112549000000D+06 0.400000000000D+01 0.000000000000D+00 0.000000000000D+00
 1 24  1 15  9 59 44.0 0.166164245456D-03 0.102318153950D-11 0.000000000000D+00
    0.500000000000D+01 0.949375000000D+02 0.377765735459D-08-0.366324354011D+00
    0.502727925777D-05 0.131116221892D-01 0.952370464802D-05 0.515402832985D+04
    0.122384000000D+06 0.558793544769D-08-0.186041434291D+01 0.180676579475D-06
    0.990417407363D+00 0.215156250000D+03 0.998553790528D+00-0.801711965950D-08
    0.292869342041D-09 0.100000000000D+01 0.229700000000D+04 0.000000000000D+00
    0.200000000000D+01 0.630000000000D+02 0.512227416039D-08 0.500000000000D+01
    0.115218000000D+06 0.400000000000D+01 0.000000000000D+00 0.000000000000D+00
 2 24  1 15  9 59 44.0-0.500587746501D-03 0.557065504836D-11 0.000000000000D+00
    0.290000000000D+02 0.951562500000D+02 0.407516974718D-08 0.225881337331D+01
    0.480562448502D-05 0.163018909516D-01 0.981055200100D-05 0.515390457916D+04
    0.122384000000D+06 0.230967998505D-06-0.196419311216D+01 0.000000000000D+00
    0.967490157311D+00 0.188625000000D+03-0.126286544657D+01-0.770817821942D-08
    0.760745973838D-10 0.100000000000D+01 0.229700000000D+04 0.000000000000D+00
    0.200000000000D+01 0.000000000000D+00-0.176951289177D-07 0.290000000000D+02
    0.121729000000D+06 0.400000000000D+01 0.000000000000D+00 0.000000000000D+00
10 24  1 15  9 59 44.0-0.694161280990D-04-0.147792889038D-11 0.000000000000D+00
    0.000000000000D+00-0.650000000000D+01 0.436768193148D-08-0.239024020145D+01
   -0.450760126114D-06 0.928798760287D-02 0.274553894997D-05 0.515368747330D+04
    0.122384000000D+06 0.169500708580D-06-0.833823585493D+00-0.875443220139D-07
    0.982112333652D+00 0.337750000000D+03-0.239146423818D+01-0.818891252965D-08
    0.183221917643D-09 0.100000000000D+01 0.229700000000D+04 0.000000000000D+00
    0.200000000000D+01 0.000000000000D+00 0.232830643654D-08 0.000000000000D+00
    0.120469000000D+06 0.400000000000D+01 0.000000000000D+00 0.000000000000D+00
13 24  1 15  9 59 44.0 0.616045203060D-03 0.375166564481D-11 0.000000000000D+00
    0.500000000000D+01-0.111468750000D+03 0.427553523606D-08 0.156316864706D+01
   -0.573508441448D-05 0.775714532938D-02 0.987015664578D-05 0.515366675949D+04
    0.122384000000D+06-0.139698386192D-06 0.353483714918D+00-0.353902578354D-07
    0.971145882798D+00 0.196562500000D+03 0.948464499536D+00-0.801747681723D-08
   -0.233581158164D-09 0.100000000000D+01 0.229700000000D+04 0.000000000000D+00
    0.200000000000D+01 0.000000000000D+00-0.111758708954D-07 0.500000000000D+01
    0.119298000000D+06 0.400000000000D+01 0.000000000000D+00 0.000000000000D+00
15 24  1 15  9 59 44.0 0.117438379675D-03 0.386535248253D-11 0.000000000000D+00
    0.210000000000D+02-0.106562500000D+03 0.541736851229D-08 0.892208783551D+00
   -0.551529228687D-05 0.154323737370D-01 0.715628266334D-05 0.515359465027D+04
    0.122384000000D+06-0.195577740669D-06 0.652719565990D-01-0.428408384323D-07
    0.934627345518D+00 0.234687500000D+03 0.128638181666D+01-0.880858119848D-08
   -0.338942689752D-09 0.100000000000D+01 0.229700000000D+04 0.000000000000D+00
    0.200000000000D+01 0.000000000000D+00-0.102445483208D-07 0.210000000000D+02
    0.115251000000D+06 0.400000000000D+01 0.000000000000D+00 0.000000000000D+00
 3 24  1 15 10  0  0.0 0.127456616610D-03 0.259205990005D-10 0.000000000000D+00
    0.450000000000D+02-0.756250000000D+01 0.450911639423D-08-0.132620191427D+01
   -0.240281224251D-06 0.504082732368D-02 0.268034636974D-05 0.515379263115D+04
    0.122400000000D+06 0.856816768646D-07-0.831244918813D+00 0.391155481338D-07
    0.982422757554D+00 0.341062500000D+03 0.107854038574D+01-0.835641950699D-08
    0.143220251413D-09 0.100000000000D+01 0.229700000000D+04 0.000000000000D+00
    0.200000000000D+01 0.000000000000D+00 0.186264514923D-08 0.450000000000D+02
    0.115218000000D+06 0.400000000000D+01 0.000000000000D+00 0.000000000000D+00
 4 24  1 15 10  0  0.0 0.266573391855D-03 0.977706804406D-11 0.000000000000D+00
    0.500000000000D+01-0.106343750000D+03 0.448732977244D-08 0.162436422486D+01
   -0.536628067493D-05 0.281479081605D-02 0.974535942078D-05 0.515359957695D+04
    0.122400000000D+06 0.782310962677D-07 0.248143081664D+00 0.100582838059D-06
    0.964467079525D+00 0.193875000000D+03-0.301063729615D+01-0.814498212834D-08
   -0.285726187357D-09 0.100000000000D+01 0.229700000000D+04 0.000000000000D+00
    0.200000000000D+01 0.000000000000D+00-0.465661287308D-08 0.500000000000D+01
    0.115218000000D+06 0.400000000000D+01 0.000000000000D+00 0.000000000000D+00
 5 24  1 15 10  0  0.0-0.158037524670D-03-0.147792889038D-11 0.000000000000D+00
    0.800000000000D+01 0.109375000000D+02 0.474626912973D-08 0.219627149248D+01
    0.506639480591D-06 0.577216094825D-02 0.309012830257D-05 0.515378581047D+04
    0.122400000000D+06-0.242143869400D-07-0.880847183895D+00-0.968575477600D-07
    0.969386703327D+00 0.324781250000D+03 0.123439421976D+01-0.834391898629D-08
    0.175721605225D-09 0.100000000000D+01 0.229700000000D+04 0.000000000000D+00
    0.200000000000D+01 0.000000000000D+00-0.111758708954D-07 0.800000000000D+01
    0.118638000000D+06 0.400000000000D+01 0.000000000000D+00 0.000000000000D+00
 6 24  1 15 10  0  0.0 0.443994067609D-03-0.133013600134D-10 0.000000000000D+00
    0.690000000000D+02 0.790312500000D+02 0.368086760862D-08-0.596433895294D-01
    0.405311584473D-05 0.311019096989D-02 0.102259218693D-04 0.515355065727D+04
    0.122400000000D+06 0.931322574616D-08-0.186879681962D+01-0.502914190292D-07
    0.989545928046D+00 0.193250000000D+03-0.809018213416D+00-0.781032533140D-08
    0.283226083218D-09 0.100000000000D+01 0.229700000000D+04 0.000000000000D+00
    0.200000000000D+01 0.000000000000D+00 0.372529029846D-08 0.690000000000D+02
    0.115218000000D+06 0.400000000000D+01 0.000000000000D+00 0.000000000000D+00
 7 24  1 15 10  0  0.0-0.377935357392D-04-0.932232069317D-11 0.000000000000D+00
    0.380000000000D+02 0.233437500000D+02 0.478912805784D-08-0.957251092733D+00
    0.130943953991D-05 0.178004119080D-01 0.116638839245D-04 0.515368087769D+04
    0.122400000000D+06 0.143423676491D-06 0.126160129663D+01 0.445172190666D-06
    0.949997242696D+00 0.148093750000D+03-0.215755299851D+01-0.825998691875D-08
    0.292869342041D-09 0.100000000000D+01 0.229700000000D+04 0.000000000000D+00
    0.200000000000D+01 0.000000000000D+00-0.111758708954D-07 0.380000000000D+02
    0.115338000000D+06 0.400000000000D+01 0.000000000000D+00 0.000000000000D+00
 8 24  1 15 10  0  0.0-0.162189360708D-03-0.193267624127D-11 0.000000000000D+00
    0.880000000000D+02-0.104062500000D+02 0.461340645261D-08 0.187042878959D+01
   -0.489875674248D-06 0.920238962863D-02 0.987760722637D-05 0.515357605362D+04
    0.122400000000D+06-0.894069671631D-07-0.295959515833D+01 0.165775418282D-06
    0.955536631742D+00 0.188531250000D+03 0.298887246471D+00-0.812891003030D-08
   -0.564666377764D-09 0.100000000000D+01 0.229700000000D+04 0.000000000000D+00
    0.200000000000D+01 0.000000000000D+00 0.512227416039D-08 0.880000000000D+02
    0.115513000000D+06 0.400000000000D+01 0.000000000000D+00 0.000000000000D+00
 9 24  1 15 10  0  0.0 0.594914890826D-04 0.122781784739D-10 0.000000000000D+00
    0.520000000000D+02-0.110750000000D+03 0.462412118464D-08 0.233446746202D+01
   -0.562332570553D-05 0.287824601401D-02 0.879541039467D-05 0.515374638176D+04
    0.122400000000D+06 0.763684511185D-07 0.189671000901D+00-0.223517417908D-07
    0.957956595217D+00 0.204875000000D+03 0.201408234764D+01-0.818284084817D-08
   -0.325370695853D-09 0.100000000000D+01 0.229700000000D+04 0.000000000000D+00
    0.200000000000D+01 0.000000000000D+00 0.139698386192D-08 0.520000000000D+02
    0.115218000000D+06 0.400000000000D+01 0.000000000000D+00 0.000000000000D+00
